[{"OBJECT_NAME":"STARLINK-34476","OBJECT_ID":"2025-126W","EPOCH":"2026-03-09T07:02:54.976704","MEAN_MOTION":14.98335488,"ECCENTRICITY":0.00029515,"INCLINATION":70.0025,"RA_OF_ASC_NODE":35.4114,"ARG_OF_PERICENTER":270.6697,"MEAN_ANOMALY":89.4123,"EPHEMERIS_TYPE":0,"CLASSIFICATION_TYPE":"U","NORAD_CAT_ID":64364,"ELEMENT_SET_NO":999,"REV_AT_EPOCH":4062,"BSTAR":0.00054138655,"MEAN_MOTION_DOT":6.374e-5,"MEAN_MOTION_DDOT":0},{"OBJECT_NAME":"SL-8 R\/B","OBJECT_ID":"1968-040B","EPOCH":"2026-03-09T18:37:46.369632","MEAN_MOTION":15.03260494,"ECCENTRICITY":0.00239141,"INCLINATION":74.0322,"RA_OF_ASC_NODE":313.5182,"ARG_OF_PERICENTER":137.361,"MEAN_ANOMALY":222.9441,"EPHEMERIS_TYPE":0,"CLASSIFICATION_TYPE":"U","NORAD_CAT_ID":3230,"ELEMENT_SET_NO":999,"REV_AT_EPOCH":9002,"BSTAR":0.00025747843,"MEAN_MOTION_DOT":3.469e-5,"MEAN_MOTION_DDOT":0}]
